COMMENT,ORIGINATOR,NORAD_CAT_ID,OBJECT_NAME,OBJECT_TYPE,CLASSIFICATION_TYPE,INTLDES,EPOCH,EPOCH_MICROSECONDS,MEAN_MOTION,ECCENTRICITY,INCLINATION,RA_OF_ASC_NODE,ARG_OF_PERICENTER,MEAN_ANOMALY,EPHEMERIS_TYPE,ELEMENT_SET_NO,REV_AT_EPOCH,BSTAR,MEAN_MOTION_DOT,MEAN_MOTION_DDOT,FILE,TLE_LINE0,TLE_LINE1,TLE_LINE2,OBJECT_ID,OBJECT_NUMBER,SEMIMAJOR_AXIS,PERIOD,APOGEE,PERIGEE
"GENERATED VIA SPACETRACK.ORG API","JSPOC","37372","COSMOS 2471 (GLONASS)","PAYLOAD","U","11009A","2016-01-10 15:32:22","96608","2.13102959","0.0008643","65.1552","82.3698","232.4388","159.1401","0","999","3789","0","5e-08","0","1979034","0 COSMOS 2471 (GLONASS)","1 37372U 11009A   16010.64747797 +.00000005 +00000-0 +00000-0 0  9997","2 37372 065.1552 082.3698 0008643 232.4388 159.1401 02.13102959037895","2011-009A","37372","25507.947","675.729","19151.859","19107.766"
"GENERATED VIA SPACETRACK.ORG API","JSPOC","17528","N-2 R/B","ROCKET BODY","U","87018B","2016-01-10 15:33:37","27872","14.50572251","0.0153881","97.4023","23.1402","138.7109","355.9045","0","999","50335","3.598e-05","1.23e-06","0","1979034","0 N-2 R/B","1 17528U 87018B   16010.64834523 +.00000123 +00000-0 +35980-4 0  9995","2 17528 097.4023 023.1402 0153881 138.7109 355.9045 14.50572251503356","1987-018B","17528","7101.917","99.271","833.067","614.497"
"GENERATED VIA SPACETRACK.ORG API","JSPOC","27830","BSAT-2C","PAYLOAD","U","03028A","2016-01-10 15:34:06","382272","0.99197949","0.0008262","2.0084","75.7397","199.676","311.7616","0","999","885","0","7e-07","0","1979034","0 BSAT-2C","1 27830U 03028A   16010.64868498 +.00000070 +00000-0 +00000-0 0  9991","2 27830 002.0084 075.7397 0008262 199.6760 311.7616 00.99197949008853","2003-028A","27830","42468.479","1451.642","36125.432","36055.257"
"GENERATED VIA SPACETRACK.ORG API","JSPOC","24298","SL-16 R/B","ROCKET BODY","U","96051B","2016-01-10 15:34:13","219968","14.12388096","0.0019289","70.8355","85.728","242.6098","117.306","0","999","99789","4.2947e-06","-4.1e-07","0","1978628","0 SL-16 R/B","1 24298U 96051B   16010.64876412 -.00000041  00000-0  42947-5 0  9999","2 24298  70.8355  85.7280 0019289 242.6098 117.3060 14.12388096997897","1996-051B","24298","7229.348","101.954","865.157","837.268"
"GENERATED VIA SPACETRACK.ORG API","JSPOC","22253","SUPERBIRD A1","PAYLOAD","U","92084A","2016-01-10 15:34:19","981632","0.99116809","0.0011331","7.9103","46.3699","73.3785","102.6878","0","999","8404","0","6.6e-07","0","1979034","0 SUPERBIRD A1","1 22253U 92084A   16010.64884238 +.00000066 +00000-0 +00000-0 0  9990","2 22253 007.9103 046.3699 0011331 073.3785 102.6878 00.99116809084046","1992-084A","22253","42491.653","1452.831","36161.666","36065.371"
"GENERATED VIA SPACETRACK.ORG API","JSPOC","27854","GALAXY 23 (TELSTAR 13)","PAYLOAD","U","03034A","2016-01-10 15:34:19","981632","1.00271554","0.0003172","0.0042","359.9681","296.9509","285.2531","0","999","4554","0","1.7e-07","0","1979034","0 GALAXY 23 (TELSTAR 13)","1 27854U 03034A   16010.64884238 +.00000017 +00000-0 +00000-0 0  9995","2 27854 000.0042 359.9681 0003172 296.9509 285.2531 01.00271554045547","2003-034A","27854","42164.796","1436.100","35800.036","35773.287"
"GENERATED VIA SPACETRACK.ORG API","JSPOC","38730","TIANLIAN 1-03","PAYLOAD","U","12040A","2016-01-10 15:34:31","889280","1.00271946","0.0002657","0.0181","249.927","34.9035","75.134","0","999","1278","0","1.11e-06","0","1978655","0 TIANLIAN 1-03","1 38730U 12040A   16010.64898020  .00000111  00000-0  00000+0 0  9995","2 38730   0.0181 249.9270 0002657  34.9035  75.1340  1.00271946 12788","2012-040A","38730","42164.686","1436.094","35797.754","35775.348"
"GENERATED VIA SPACETRACK.ORG API","JSPOC","25495","EUTE 25A (HB 5)","PAYLOAD","U","98057A","2016-01-10 15:34:33","108384","0.98454925","0.000677","2.4002","74.4575","283.3896","232.3923","0","999","6308","0","2.5e-07","0","1978674","0 EUTE 25A (HB 5)","1 25495U 98057A   16010.64899431  .00000025  00000-0  00000+0 0  9992","2 25495   2.4002  74.4575 0006770 283.3896 232.3923  0.98454925 63083","1998-057A","25495","42681.880","1462.598","36332.641","36274.849"
"GENERATED VIA SPACETRACK.ORG API","JSPOC","27813","BD 1 03","PAYLOAD","U","03021A","2016-01-10 15:34:33","108384","0.99767917","0.0011741","4.241","66.287","158.3969","6.1184","0","999","4628","0","2.3e-07","0","1979034","0 BD 1 03","1 27813U 03021A   16010.64899431 +.00000023 +00000-0 +00000-0 0  9994","2 27813 004.2410 066.2870 0011741 158.3969 006.1184 00.99767917046283","2003-021A","27813","42306.578","1443.349","35978.115","35878.771"
"GENERATED VIA SPACETRACK.ORG API","JSPOC","28463","EXPRESS AM-1","PAYLOAD","U","04043A","2016-01-10 15:34:33","108384","0.99194442","0.0012968","4.4832","63.1897","165.7237","1.8336","0","999","4091","0","5.7e-07","0","1979034","0 EXPRESS AM-1","1 28463U 04043A   16010.64899431 +.00000057 +00000-0 +00000-0 0  9998","2 28463 004.4832 063.1897 0012968 165.7237 001.8336 00.99194442040914","2004-043A","28463","42469.480","1451.694","36146.419","36036.271"
"GENERATED VIA SPACETRACK.ORG API","JSPOC","38044","GLOBALSTAR M090","PAYLOAD","U","11080E","2016-01-10 15:34:55","320960","12.62268576","4.71e-05","51.9895","51.7674","156.9796","352.3921","0","999","18848","8.4034e-05","-8.9e-07","0","1979034","0 GLOBALSTAR M090","1 38044U 11080E   16010.64925140 -.00000089 +00000-0 +84034-4 0  9999","2 38044 051.9895 051.7674 0000471 156.9796 352.3921 12.62268576188482","2011-080E","38044","7791.731","114.080","1413.963","1413.229"
"GENERATED VIA SPACETRACK.ORG API","JSPOC","16613","SPOT 1","PAYLOAD","U","86019A","2016-01-10 15:35:13","375968","14.6461262","0.0142747","98.7648","20.4841","221.2846","277.5577","0","999","25260","5.8068e-05","2.92e-06","0","1979034","0 SPOT 1","1 16613U 86019A   16010.64946037 +.00000292 +00000-0 +58068-4 0  9992","2 16613 098.7648 020.4841 0142747 221.2846 277.5577 14.64612620252607","1986-019A","16613","7056.456","98.319","779.050","577.592"
"GENERATED VIA SPACETRACK.ORG API","JSPOC","15095","COSMOS 1581","PAYLOAD","U","84071A","2016-01-10 15:35:15","756288","1.99688412","0.6040175","67.9344","331.5415","80.1855","130.1769","0","999","20436","0","8.37e-06","0","1979034","0 COSMOS 1581","1 15095U 84071A   16010.64948792 +.00000837 +00000-0 +00000-0 0  9995","2 15095 067.9344 331.5415 6040175 080.1855 130.1769 01.99688412204367","1984-071A","15095","26637.896","721.123","36349.517","4170.005"
"GENERATED VIA SPACETRACK.ORG API","JSPOC","23403","SL-12 R/B(AUX MOTOR)","ROCKET BODY","U","94076H","2016-01-10 15:35:17","587104","4.26939364","0.56615","65.3153","231.6051","318.7666","18.3987","0","999","32795","-1.6597e-06","4.4e-07","0","1979034","0 SL-12 R/B(AUX MOTOR)","1 23403U 94076H   16010.64950911 +.00000044 +00000-0 -16597-5 0  9993","2 23403 065.3153 231.6051 5661500 318.7666 018.3987 04.26939364327953","1994-076H","23403","16050.591","337.284","18759.498","585.414"
"GENERATED VIA SPACETRACK.ORG API","JSPOC","28510","COSMOS 2412 (GLONASS)","PAYLOAD","U","04053C","2016-01-10 15:35:20","299200","2.13103219","0.0004482","63.1437","195.8234","227.7386","338.6958","0","999","8591","0","9.5e-07","0","1979034","0 COSMOS 2412 (GLONASS)","1 28510U 04053C   16010.64954050 +.00000095 +00000-0 +00000-0 0  9993","2 28510 063.1437 195.8234 0004482 227.7386 338.6958 02.13103219085914","2004-053C","28510","25507.927","675.728","19141.224","19118.359"
"GENERATED VIA SPACETRACK.ORG API","JSPOC","24872","IRIDIUM 18","PAYLOAD","U","97034D","2016-01-10 15:35:41","630496","14.34219064","0.0001904","86.3959","240.8505","87.8928","272.2486","0","999","96887","8.5834e-05","2.6e-06","0","1978686","0 IRIDIUM 18","1 24872U 97034D   16010.64978739  .00000260  00000-0  85834-4 0  9997","2 24872  86.3959 240.8505 0001904  87.8928 272.2486 14.34219064968878","1997-034D","24872","7155.799","100.403","779.027","776.302"
"GENERATED VIA SPACETRACK.ORG API","JSPOC","21733","COSMOS 2162","PAYLOAD","U","91068F","2016-01-10 15:35:54","872160","12.62369673","0.0006137","82.5876","248.0024","214.2629","173.7522","0","999","11914","0.00013359","3.4e-07","0","1979034","0 COSMOS 2162","1 21733U 91068F   16010.64994065 +.00000034 +00000-0 +13359-3 0  9992","2 21733 082.5876 248.0024 0006137 214.2629 173.7522 12.62369673119145","1991-068F","21733","7791.315","114.071","1417.962","1408.399"
"GENERATED VIA SPACETRACK.ORG API","JSPOC","37673","SAC-D (AQUARIUS)","PAYLOAD","U","11024A","2016-01-10 15:36:03","991680","14.72410021","0.000215","98.0112","19.6277","86.7133","50.2832","0","999","24642","6.2672e-05","3.48e-06","0","1979034","0 SAC-D (AQUARIUS)","1 37673U 11024A   16010.65004620 +.00000348 +00000-0 +62672-4 0  9997","2 37673 098.0112 019.6277 0002150 086.7133 050.2832 14.72410021246427","2011-024A","37673","7031.521","97.798","654.898","651.875"
"GENERATED VIA SPACETRACK.ORG API","JSPOC","22675","COSMOS 2251","PAYLOAD","U","93036A","2016-01-10 15:36:07","863264","14.32458628","0.0025599","74.0401","91.5458","335.3876","24.6051","0","999","17906","2.5131e-05","4.2e-07","0","1978714","0 COSMOS 2251","1 22675U 93036A   16010.65009101  .00000042  00000-0  25131-4 0  9995","2 22675  74.0401  91.5458 0025599 335.3876  24.6051 14.32458628179061","1993-036A","22675","7161.661","100.526","801.859","765.193"
"GENERATED VIA SPACETRACK.ORG API","JSPOC","22184","COSMOS 2213","PAYLOAD","U","92068C","2016-01-10 15:36:09","338112","12.62525549","0.0002875","82.5989","252.5584","113.5182","274.6754","0","999","7027","0.00017876","4.3e-07","0","1978656","0 COSMOS 2213","1 22184U 92068C   16010.65010808  .00000043  00000-0  17876-3 0  9997","2 22184  82.5989 252.5584 0002875 113.5182 274.6754 12.62525549 70276","1992-068C","22184","7790.674","114.057","1414.779","1410.299"
